CCSDS_OMM_VERS,COMMENT,CREATION_DATE,ORIGINATOR,OBJECT_NAME,OBJECT_ID,CENTER_NAME,REF_FRAME,TIME_SYSTEM,MEAN_ELEMENT_THEORY,EPOCH,MEAN_MOTION,ECCENTRICITY,INCLINATION,RA_OF_ASC_NODE,ARG_OF_PERICENTER,MEAN_ANOMALY,EPHEMERIS_TYPE,CLASSIFICATION_TYPE,NORAD_CAT_ID,ELEMENT_SET_NO,REV_AT_EPOCH,BSTAR,MEAN_MOTION_DOT,MEAN_MOTION_DDOT,SEMIMAJOR_AXIS,PERIOD,APOAPSIS,PERIAPSIS,OBJECT_TYPE,RCS_SIZE,COUNTRY_CODE,LAUNCH_DATE,SITE,DECAY_DATE,FILE,GP_ID,TLE_LINE0,TLE_LINE1,TLE_LINE2,NORAD_KEY,JCAT,DeepCat,Satcat,Piece,Active,Type,Name,LDate,Parent,Owner,State,SDate,ExpandedStatus,DDate,ODate,Period,Perigee,PF,Apogee,AF,Inc,IF,OpOrbit,SATCAT_KEY
3.0,GENERATED VIA SPACE-TRACK.ORG API,2026-05-06T14:56:52,18 SPCS,GAOFEN 13 02,2023-036A,EARTH,TEME,UTC,SGP4,2026-05-06T12:12:10.461024,1.00274093,0.0004642,1.0192,355.7993,342.8003,217.0521,0,U,55912,999,1167,0.00000000000000,-0.00000211,0.0000000000000,42164.085,1436.064,35805.523,35766.377,PAYLOAD,LARGE,PRC,2023-03-17,XSC,,5177496,322305572,0 GAOFEN 13 02,1 55912U 23036A   26126.50845441 -.00000211  00000-0  00000+0 0  9998,2 55912   1.0192 355.7993 0004642 342.8003 217.0521  1.00274093 11673,55912,S55912,-,55912,2023-036A,A,P,Gao Fen 13-02,2023 Mar 17,S55913,YWZB,CN,2023 Mar 17 0859?,In Earth orbit,-,2026 May  5 ,    1436.059 ,   35766, ,   35805, ,  1.02 , ,GEO/S,55912
3.0,GENERATED VIA SPACE-TRACK.ORG API,2026-05-06T14:56:52,18 SPCS,ANIK F3,2007-009A,EARTH,TEME,UTC,SGP4,2026-05-06T10:51:53.188416,1.00271858,0.0002888,1.0894,84.3004,321.1624,223.1197,0,U,31102,999,4614,0.00000000000000,0.00000007,0.0000000000000,42164.711,1436.096,35798.754,35774.399,PAYLOAD,LARGE,CA,2007-04-09,TTMTR,,5177687,322310149,0 ANIK F3,1 31102U 07009A   26126.45269894  .00000007  00000-0  00000+0 0  9993,2 31102   1.0894  84.3004 0002888 321.1624 223.1197  1.00271858 46147,31102,S31102,-,31102,2007-009A,A,P,Anik F3,2007 Apr  9,S31104,TCANL,CA,2007 Apr 10 0805,In Earth orbit,-,2026 May  5 ,    1436.098 ,   35774, ,   35798, ,  1.09 , ,GEO/S,31102
3.0,GENERATED VIA SPACE-TRACK.ORG API,2026-05-06T14:36:32,18 SPCS,STAR ONE C2,2008-018B,EARTH,TEME,UTC,SGP4,2026-05-06T11:07:14.215872,1.00270233,0.0003193,1.1345,82.7937,336.5685,266.7781,0,U,32768,999,6623,0.00000000000000,-0.00000268,0.0000000000000,42165.167,1436.119,35800.495,35773.569,PAYLOAD,LARGE,BRAZ,2008-04-18,FRGUI,,5176979,322292394,0 STAR ONE C2,1 32768U 08018B   26126.46335898 -.00000268  00000-0  00000+0 0  9992,2 32768   1.1345  82.7937 0003193 336.5685 266.7781  1.00270233 66232,32768,S32768,-,32768,2008-018B,A,P,Star One C2,2008 Apr 18,S32770,STONE,BR,2008 Apr 18 2243,In Earth orbit,-,2026 May  5 ,    1436.108 ,   35773, ,   35800, ,  1.13 , ,GEO/S,32768
3.0,GENERATED VIA SPACE-TRACK.ORG API,2026-05-06T10:08:52,18 SPCS,INTELSAT 901,2001-024A,EARTH,TEME,UTC,SGP4,2026-05-06T04:46:17.397408,0.988191,0.0005892,1.1485,85.1605,345.2216,264.7814,0,U,26824,999,2250,0.00000000000000,0.00000020,0.0000000000000,42576.953,1457.208,36223.904,36173.731,PAYLOAD,LARGE,ITSO,2001-06-09,FRGUI,,5176958,322266151,0 INTELSAT 901,1 26824U 01024A   26126.19881247  .00000020  00000-0  00000-0 0  9998,2 26824   1.1485  85.1605 0005892 345.2216 264.7814  0.98819100 22502,26824,S26824,-,26824,2001-024A,P,P,INTELSAT 901,2001 Jun  9,S26825,SESINTU,US,2001 Jun  9 0705,In Earth orbit,-,2026 May  5 ,    1457.215 ,   36173, ,   36223, ,  1.15 , ,GEO/D,26824
3.0,GENERATED VIA SPACE-TRACK.ORG API,2026-05-06T14:46:56,18 SPCS,NSS 9,2009-008A,EARTH,TEME,UTC,SGP4,2026-05-06T12:59:38.670720,1.00271995,0.0002415,1.1541,83.0066,313.8626,205.515,0,U,33749,999,6310,0.00000000000000,0.00000080,0.0000000000000,42164.673,1436.094,35796.721,35776.355,PAYLOAD,LARGE,SES,2009-02-12,FRGUI,,5177024,322293285,0 NSS 9,1 33749U 09008A   26126.54141980  .00000080  00000-0  00000+0 0  9999,2 33749   1.1541  83.0066 0002415 313.8626 205.5150  1.00271995 63106,33749,S33749,-,33749,2009-008A,A,P      O,NSS 9,2009 Feb 12,S33754,SESSL/SESSAN,UK,2009 Feb 12 2241,In Earth orbit,-,2026 May  5 ,    1436.100 ,   35776, ,   35796, ,  1.15 , ,GEO/S,33749
3.0,GENERATED VIA SPACE-TRACK.ORG API,2026-05-06T14:46:56,18 SPCS,YAMAL 402,2012-070A,EARTH,TEME,UTC,SGP4,2026-05-06T09:58:43.479264,1.00272575,0.0004047,1.1577,84.641,318.7402,25.48,0,U,39022,999,4897,0.00000000000000,0.00000094,0.0000000000000,42164.51,1436.086,35803.439,35769.312,PAYLOAD,LARGE,CIS,2012-12-08,TTMTR,,5177135,322296499,0 YAMAL 402,1 39022U 12070A   26126.41578101  .00000094  00000-0  00000+0 0  9992,2 39022   1.1577  84.6410 0004047 318.7402  25.4800  1.00272575 48978,39022,S39022,-,39022,2012-070A,A,P,Yamal-402,2012 Dec  8,S39023,GAZS,RU,2012 Dec  8 2225,In Earth orbit,-,2026 May  5 ,    1436.091 ,   35769, ,   35803, ,  1.15 , ,GEO/S,39022
3.0,GENERATED VIA SPACE-TRACK.ORG API,2026-05-06T14:46:56,18 SPCS,GOES 15,2010-008A,EARTH,TEME,UTC,SGP4,2026-05-06T13:14:48.700320,1.00273833,0.0004674,1.166,83.5922,25.6656,17.1564,0,U,36411,999,5922,0.00000000000000,0.00000030,0.0000000000000,42164.158,1436.068,35805.73,35766.315,PAYLOAD,LARGE,US,2010-03-04,AFETR,,5177101,322296574,0 GOES 15,1 36411U 10008A   26126.55195255  .00000030  00000-0  00000+0 0  9990,2 36411   1.1660  83.5922 0004674  25.6656  17.1564  1.00273833 59220,36411,S36411,-,36411,2010-008A,P,P,EWS-G2,2010 Mar  4,S36412,SFSSC,US,2010 Mar  5 0418,In Earth orbit,-,2026 May  5 ,    1436.070 ,   35766, ,   35805, ,  1.16 , ,GEO/S,36411
3.0,GENERATED VIA SPACE-TRACK.ORG API,2026-05-06T15:06:46,18 SPCS,ASTRA 1L,2007-016A,EARTH,TEME,UTC,SGP4,2026-05-06T09:36:00.658368,1.0027263,0.0005175,1.2138,81.8558,339.1752,282.7597,0,U,31306,999,4456,0.00000000000000,-0.00000176,0.0000000000000,42164.495,1436.085,35808.18,35764.54,PAYLOAD,LARGE,SES,2007-05-04,FRGUI,,5177764,322311817,0 ASTRA 1L,1 31306U 07016A   26126.40000762 -.00000176  00000-0  00000+0 0  9997,2 31306   1.2138  81.8558 0005175 339.1752 282.7597  1.00272630 44563,31306,S31306,-,31306,2007-016A,A,P      T,Astra 1L,2007 May  4,S31309,SESSA,L,2007 May  4 2256,In Earth orbit,-,2026 May  5 ,    1436.081 ,   35764, ,   35808, ,  1.21 , ,GEO/S,31306
3.0,GENERATED VIA SPACE-TRACK.ORG API,2026-05-06T14:46:56,18 SPCS,SES 3,2011-035A,EARTH,TEME,UTC,SGP4,2026-05-06T10:56:22.758144,1.00272933,0.0003197,1.2188,83.5006,324.7253,237.1852,0,U,37748,999,5417,0.00000000000000,-0.00000094,0.0000000000000,42164.41,1436.08,35799.755,35772.795,PAYLOAD,LARGE,US,2011-07-15,TTMTR,,5177118,322296787,0 SES 3,1 37748U 11035A   26126.45581896 -.00000094  00000-0  00000+0 0  9995,2 37748   1.2188  83.5006 0003197 324.7253 237.1852  1.00272933 54171,37748,S37748,-,37748,2011-035A,P,P,SES-3,2011 Jul 15,S37787,SESSAP/SESE,US,2011 Jul 16 0717,In Earth orbit,-,2026 May  5 ,    1436.093 ,   35772, ,   35800, ,  1.22 , ,GEO/S,37748
3.0,GENERATED VIA SPACE-TRACK.ORG API,2026-05-06T14:46:56,18 SPCS,NATO 2B,1971-009A,EARTH,TEME,UTC,SGP4,2026-05-06T12:38:25.444032,1.00272146,0.000227,1.2501,248.3604,227.2031,193.5624,0,U,4902,999,11822,0.00000000000000,-0.00000081,0.0000000000000,42164.631,1436.092,35796.067,35776.924,PAYLOAD,LARGE,NATO,1971-02-03,AFETR,,5177116,322296256,0 NATO 2B,1  4902U 71009A   26126.52668338 -.00000081  00000-0  00000+0 0  9999,2  4902   1.2501 248.3604 0002270 227.2031 193.5624  1.00272146118228,4902,S04902,-,04902,1971-009A,P,P,NATO IIB,1971 Feb  3,S04903,NATO,I-NATO,1971 Feb  3 0209?,In Earth orbit,-,2026 May  5 ,    1436.092 ,   35777, ,   35795, ,  1.25 , ,GEO/S,4902
3.0,GENERATED VIA SPACE-TRACK.ORG API,2026-05-06T14:46:56,18 SPCS,NATO 2B,1971-009A,EARTH,TEME,UTC,SGP4,2026-05-06T12:38:25.444032,1.00272146,0.000227,1.2501,248.3604,227.2031,193.5624,0,U,4902,999,11822,0.00000000000000,-0.00000081,0.0000000000000,42164.631,1436.092,35796.067,35776.924,PAYLOAD,LARGE,NATO,1971-02-03,AFETR,,5177116,322296256,0 NATO 2B,1  4902U 71009A   26126.52668338 -.00000081  00000-0  00000+0 0  9999,2  4902   1.2501 248.3604 0002270 227.2031 193.5624  1.00272146118228,4902,A01923,-,04902,1971-009,C,C AM,Star 17A,1971 Feb  3,S04902,NATO,I-NATO,1971 Feb  5 0456,Attached to S04902 NATO IIB,-,-,-,-,-,-,-,-,-,-,4902
3.0,GENERATED VIA SPACE-TRACK.ORG API,2026-05-06T15:06:46,18 SPCS,HORIZONS 1 (GALAXY 13),2003-044A,EARTH,TEME,UTC,SGP4,2026-05-06T13:03:21.795264,1.00270932,0.0002119,1.3126,84.3451,316.2029,229.6843,0,U,27954,999,4615,0.00000000000000,0.00000141,0.0000000000000,42164.971,1436.109,35795.771,35777.901,PAYLOAD,LARGE,US,2003-10-01,SEAL,,5177726,322310824,0 HORIZONS 1 (GALAXY 13),1 27954U 03044A   26126.54400226  .00000141  00000-0  00000+0 0  9993,2 27954   1.3126  84.3451 0002119 316.2029 229.6843  1.00270932 46157,27954,S27954,-,27954,2003-044A,P,P,Galaxy 13,2003 Oct  1,S27953,SESINTU,US,2003 Oct  1 0503,In Earth orbit,-,2026 May  5 ,    1436.118 ,   35778, ,   35795, ,  1.31 , ,GEO/S,27954
3.0,GENERATED VIA SPACE-TRACK.ORG API,2026-05-06T14:46:56,18 SPCS,CHINASAT 2A,2012-028A,EARTH,TEME,UTC,SGP4,2026-05-06T13:59:02.245632,1.0027327,0.0002841,1.347,84.3951,31.1223,56.9337,0,U,38352,999,5088,0.00000000000000,-0.00000285,0.0000000000000,42164.316,1436.076,35798.16,35774.202,PAYLOAD,LARGE,PRC,2012-05-26,XSC,,5177127,322296899,0 CHINASAT 2A,1 38352U 12028A   26126.58266488 -.00000285  00000-0  00000+0 0  9993,2 38352   1.3470  84.3951 0002841  31.1223  56.9337  1.00273270 50881,38352,S38352,-,38352,2012-028A,A,P,Zhongxing 2A,2012 May 26,S38353,JHB,CN,2012 May 26 1621,In Earth orbit,-,2026 May  5 ,    1436.122 ,   35775, ,   35798, ,  1.34 , ,GEO/S,38352
